*******************************************************************************
Ephemeris / WWW_USER Tue Mar 11 05:43:30 2025 Pasadena, USA      / Horizons    
*******************************************************************************
Target body name: Hale-Bopp (C/1995 O1)           {source: JPL#226}
Center body name: Earth (399)                     {source: DE441}
Center-site name: Gemini South Obs., Cerro Pachon
*******************************************************************************
Start time      : A.D. 2018-Aug-09 22:23:00.0000 UT      
Stop  time      : A.D. 2018-Aug-10 11:13:00.0000 UT      
Step-size       : 1 minutes
*******************************************************************************
Target pole/equ : undefined
Target radii    : 30. km                                                       
Center geodetic : 289.2634, -30.2406227, 2.71233  {E-lon(deg),Lat(deg),Alt(km)}
Center cylindric: 289.2634,5517.21435,-3194.81213 {E-lon(deg),Dxy(km),Dz(km)}
Center pole/equ : ITRF93                          {East-longitude positive}
Center radii    : 6378.137, 6378.137, 6356.752 km {Equator_a, b, pole_c}       
Target primary  : Sun
Vis. interferer : MOON (R_eq= 1737.400) km        {source: DE441}
Rel. light bend : Sun                             {source: DE441}
Rel. lght bnd GM: 1.3271E+11 km^3/s^2                                          
Small-body perts: Yes                             {source: SB441-N16}
Atmos refraction: NO (AIRLESS)
RA format       : HMS
Time format     : CAL 
Calendar mode   : Mixed Julian/Gregorian
RTS-only print  : NO       
EOP file        : eop.250310.p250606                                           
EOP coverage    : DATA-BASED 1962-JAN-20 TO 2025-MAR-10. PREDICTS-> 2025-JUN-05
Units conversion: 1 au= 149597870.700 km, c= 299792.458 km/s, 1 day= 86400.0 s 
Table cut-offs 1: Elevation (-90.0deg=NO ),Airmass (>38.000=NO), Daylight (YES)
Table cut-offs 2: Solar elongation (  0.0,180.0=NO ),Local Hour Angle( 0.0=NO )
Table cut-offs 3: RA/DEC angular rate (     0.0=NO )                           
*******************************************************************************
Initial IAU76/J2000 heliocentric ecliptic osculating elements (au, days, deg.):
  EPOCH=  2459837.5 ! 2022-Sep-15.0000000 (TDB)    RMSW= n.a.                  
   EC= .9949810027633206   QR= .890537663547794    TP= 2450537.1349071441      
   OM= 282.7334213961641   W= 130.4146670659176    IN= 89.28759424740302       
  Equivalent ICRF heliocentric cartesian coordinates (au, au/d):
   X= 3.907631452214869E+00  Y=-1.373895334060347E+00  Z=-4.624358508575312E+01
  VX= 3.778244409519935E-04 VY=-5.803173067116371E-04 VZ=-3.255716412104052E-03
Comet physical (GM= km^3/s^2; RAD= km):                                        
   GM= n.a.                RAD= 30.                                            
   M1=  4.8      M2=  n.a.     k1=  4.     k2= n.a.     PHCOF= n.a.            
*******************************************************************************
 Date__(UT)__HR:MN     R.A._________(ICRF)_________DEC
******************************************************
$$SOE
 2018-Aug-09 22:23 C   00 12 26.194357 -86 23 26.65812
 2018-Aug-09 22:24 C   00 12 26.152576 -86 23 26.70126
 2018-Aug-09 22:25 C   00 12 26.110793 -86 23 26.74440
 2018-Aug-09 22:26 C   00 12 26.069005 -86 23 26.78755
 2018-Aug-09 22:27 C   00 12 26.027215 -86 23 26.83070
 2018-Aug-09 22:28 C   00 12 25.985422 -86 23 26.87385
 2018-Aug-09 22:29 C   00 12 25.943625 -86 23 26.91700
 2018-Aug-09 22:30 C   00 12 25.901825 -86 23 26.96015
 2018-Aug-09 22:31 C   00 12 25.860022 -86 23 27.00331
 2018-Aug-09 22:32 C   00 12 25.818215 -86 23 27.04647
 2018-Aug-09 22:33 C   00 12 25.776405 -86 23 27.08963
 2018-Aug-09 22:34 C   00 12 25.734592 -86 23 27.13279
 2018-Aug-09 22:35 C   00 12 25.692776 -86 23 27.17596
 2018-Aug-09 22:36 C   00 12 25.650956 -86 23 27.21912
 2018-Aug-09 22:37 C   00 12 25.609133 -86 23 27.26229
 2018-Aug-09 22:38 C   00 12 25.567306 -86 23 27.30546
 2018-Aug-09 22:39 C   00 12 25.525476 -86 23 27.34863
 2018-Aug-09 22:40 N   00 12 25.483643 -86 23 27.39181
 2018-Aug-09 22:41 N   00 12 25.441806 -86 23 27.43499
 2018-Aug-09 22:42 N   00 12 25.399966 -86 23 27.47816
 2018-Aug-09 22:43 N   00 12 25.358123 -86 23 27.52134
 2018-Aug-09 22:44 N   00 12 25.316276 -86 23 27.56453
 2018-Aug-09 22:45 N   00 12 25.274426 -86 23 27.60771
 2018-Aug-09 22:46 N   00 12 25.232572 -86 23 27.65090
 2018-Aug-09 22:47 N   00 12 25.190715 -86 23 27.69408
 2018-Aug-09 22:48 N   00 12 25.148854 -86 23 27.73727
 2018-Aug-09 22:49 N   00 12 25.106990 -86 23 27.78046
 2018-Aug-09 22:50 N   00 12 25.065122 -86 23 27.82366
 2018-Aug-09 22:51 N   00 12 25.023251 -86 23 27.86685
 2018-Aug-09 22:52 N   00 12 24.981376 -86 23 27.91005
 2018-Aug-09 22:53 N   00 12 24.939498 -86 23 27.95325
 2018-Aug-09 22:54 N   00 12 24.897616 -86 23 27.99645
 2018-Aug-09 22:55 N   00 12 24.855731 -86 23 28.03965
 2018-Aug-09 22:56 N   00 12 24.813842 -86 23 28.08285
 2018-Aug-09 22:57 N   00 12 24.771950 -86 23 28.12606
 2018-Aug-09 22:58 N   00 12 24.730054 -86 23 28.16927
 2018-Aug-09 22:59 N   00 12 24.688154 -86 23 28.21248
 2018-Aug-09 23:00 N   00 12 24.646251 -86 23 28.25569
 2018-Aug-09 23:01 N   00 12 24.604344 -86 23 28.29890
 2018-Aug-09 23:02 N   00 12 24.562434 -86 23 28.34211
 2018-Aug-09 23:03 N   00 12 24.520520 -86 23 28.38533
 2018-Aug-09 23:04 N   00 12 24.478602 -86 23 28.42855
 2018-Aug-09 23:05 N   00 12 24.436681 -86 23 28.47177
 2018-Aug-09 23:06 N   00 12 24.394756 -86 23 28.51499
 2018-Aug-09 23:07 N   00 12 24.352827 -86 23 28.55821
 2018-Aug-09 23:08 N   00 12 24.310894 -86 23 28.60144
 2018-Aug-09 23:09 A   00 12 24.268958 -86 23 28.64466
 2018-Aug-09 23:10 A   00 12 24.227019 -86 23 28.68789
 2018-Aug-09 23:11 A   00 12 24.185075 -86 23 28.73112
 2018-Aug-09 23:12 A   00 12 24.143128 -86 23 28.77435
 2018-Aug-09 23:13 A   00 12 24.101177 -86 23 28.81758
 2018-Aug-09 23:14 A   00 12 24.059222 -86 23 28.86081
 2018-Aug-09 23:15 A   00 12 24.017263 -86 23 28.90405
 2018-Aug-09 23:16 A   00 12 23.975301 -86 23 28.94729
 2018-Aug-09 23:17 A   00 12 23.933335 -86 23 28.99052
 2018-Aug-09 23:18 A   00 12 23.891365 -86 23 29.03376
 2018-Aug-09 23:19 A   00 12 23.849392 -86 23 29.07700
 2018-Aug-09 23:20 A   00 12 23.807414 -86 23 29.12025
 2018-Aug-09 23:21 A   00 12 23.765433 -86 23 29.16349
 2018-Aug-09 23:22 A   00 12 23.723448 -86 23 29.20674
 2018-Aug-09 23:23 A   00 12 23.681459 -86 23 29.24998
 2018-Aug-09 23:24 A   00 12 23.639466 -86 23 29.29323
 2018-Aug-09 23:25 A   00 12 23.597469 -86 23 29.33648
 2018-Aug-09 23:26 A   00 12 23.555469 -86 23 29.37973
 2018-Aug-09 23:27 A   00 12 23.513464 -86 23 29.42299
 2018-Aug-09 23:28 A   00 12 23.471456 -86 23 29.46624
 2018-Aug-09 23:29 A   00 12 23.429444 -86 23 29.50950
 2018-Aug-09 23:30 A   00 12 23.387428 -86 23 29.55275
 2018-Aug-09 23:31 A   00 12 23.345408 -86 23 29.59601
 2018-Aug-09 23:32 A   00 12 23.303384 -86 23 29.63927
 2018-Aug-09 23:33 A   00 12 23.261356 -86 23 29.68253
 2018-Aug-09 23:34 A   00 12 23.219324 -86 23 29.72579
 2018-Aug-09 23:35 A   00 12 23.177289 -86 23 29.76906
 2018-Aug-09 23:36 A   00 12 23.135249 -86 23 29.81232
 2018-Aug-09 23:37     00 12 23.093205 -86 23 29.85559
 2018-Aug-09 23:38     00 12 23.051158 -86 23 29.89885
 2018-Aug-09 23:39     00 12 23.009106 -86 23 29.94212
 2018-Aug-09 23:40     00 12 22.967050 -86 23 29.98539
 2018-Aug-09 23:41     00 12 22.924991 -86 23 30.02866
 2018-Aug-09 23:42     00 12 22.882927 -86 23 30.07193
 2018-Aug-09 23:43     00 12 22.840860 -86 23 30.11520
 2018-Aug-09 23:44     00 12 22.798788 -86 23 30.15848
 2018-Aug-09 23:45     00 12 22.756712 -86 23 30.20175
 2018-Aug-09 23:46     00 12 22.714632 -86 23 30.24503
 2018-Aug-09 23:47     00 12 22.672549 -86 23 30.28831
 2018-Aug-09 23:48     00 12 22.630461 -86 23 30.33159
 2018-Aug-09 23:49     00 12 22.588369 -86 23 30.37487
 2018-Aug-09 23:50     00 12 22.546273 -86 23 30.41815
 2018-Aug-09 23:51     00 12 22.504173 -86 23 30.46143
 2018-Aug-09 23:52     00 12 22.462069 -86 23 30.50471
 2018-Aug-09 23:53     00 12 22.419961 -86 23 30.54800
 2018-Aug-09 23:54     00 12 22.377848 -86 23 30.59128
 2018-Aug-09 23:55     00 12 22.335732 -86 23 30.63457
 2018-Aug-09 23:56     00 12 22.293611 -86 23 30.67785
 2018-Aug-09 23:57     00 12 22.251486 -86 23 30.72114
 2018-Aug-09 23:58     00 12 22.209358 -86 23 30.76443
 2018-Aug-09 23:59     00 12 22.167225 -86 23 30.80772
 2018-Aug-10 00:00     00 12 22.125088 -86 23 30.85101
 2018-Aug-10 00:01     00 12 22.082946 -86 23 30.89430
 2018-Aug-10 00:02     00 12 22.040801 -86 23 30.93760
 2018-Aug-10 00:03     00 12 21.998651 -86 23 30.98089
 2018-Aug-10 00:04     00 12 21.956497 -86 23 31.02418
 2018-Aug-10 00:05     00 12 21.914339 -86 23 31.06748
 2018-Aug-10 00:06     00 12 21.872177 -86 23 31.11077
 2018-Aug-10 00:07     00 12 21.830011 -86 23 31.15407
 2018-Aug-10 00:08     00 12 21.787840 -86 23 31.19737
 2018-Aug-10 00:09     00 12 21.745666 -86 23 31.24067
 2018-Aug-10 00:10     00 12 21.703487 -86 23 31.28397
 2018-Aug-10 00:11     00 12 21.661303 -86 23 31.32727
 2018-Aug-10 00:12     00 12 21.619116 -86 23 31.37057
 2018-Aug-10 00:13     00 12 21.576924 -86 23 31.41387
 2018-Aug-10 00:14     00 12 21.534728 -86 23 31.45717
 2018-Aug-10 00:15     00 12 21.492528 -86 23 31.50048
 2018-Aug-10 00:16     00 12 21.450324 -86 23 31.54378
 2018-Aug-10 00:17     00 12 21.408115 -86 23 31.58708
 2018-Aug-10 00:18     00 12 21.365902 -86 23 31.63039
 2018-Aug-10 00:19     00 12 21.323685 -86 23 31.67369
 2018-Aug-10 00:20     00 12 21.281463 -86 23 31.71700
 2018-Aug-10 00:21     00 12 21.239237 -86 23 31.76031
 2018-Aug-10 00:22     00 12 21.197007 -86 23 31.80362
 2018-Aug-10 00:23     00 12 21.154773 -86 23 31.84692
 2018-Aug-10 00:24     00 12 21.112534 -86 23 31.89023
 2018-Aug-10 00:25     00 12 21.070291 -86 23 31.93354
 2018-Aug-10 00:26     00 12 21.028044 -86 23 31.97685
